NORAD_CAT_ID,OBJECT_NAME,OBJECT_TYPE,EPOCH,MEAN_MOTION,ECCENTRICITY,INCLINATION,RA_OF_ASC_NODE,ARG_OF_PERICENTER,MEAN_ANOMALY,BSTAR,MEAN_MOTION_DOT,MEAN_MOTION_DDOT,TLE_LINE0,TLE_LINE1,TLE_LINE2,SEMIMAJOR_AXIS,PERIOD,APOGEE,PERIGEE,DECAYED
52355.0,STARLINK-3877,PAYLOAD,2024-03-04 13:21:31,15.08838564,0.0001203,53.2164,259.2612,80.3309,279.7819,7.1104e-05,8.44e-06,0.0,0 STARLINK-3877,1 52355U 22045AA  24064.55661412  .00000844  00000-0  71104-4 0  9992,2 52355  53.2164 259.2612 0001203  80.3309 279.7819 15.08838564104803,6917.885,95.438,540.582,538.918,0.0
52355.0,STARLINK-3877,PAYLOAD,2024-03-04 19:43:03,15.08847229,0.0001206,53.2153,258.0722,82.9573,277.1556,0.00020148,2.921e-05,0.0,0 STARLINK-3877,1 52355U 22045AA  24064.82156981  .00002921  00000-0  20148-3 0  9991,2 52355  53.2153 258.0722 0001206  82.9573 277.1556 15.08847229104846,6917.858,95.437,540.558,538.889,0.0
52355.0,STARLINK-3877,PAYLOAD,2024-03-05 13:12:18,15.08836676,0.0001309,53.2163,254.804,89.5589,270.5553,0.00014858,2.077e-05,0.0,0 STARLINK-3877,1 52355U 22045AA  24065.55021609  .00002077  00000-0  14858-3 0  9993,2 52355  53.2163 254.8040 0001309  89.5589 270.5553 15.08836676104958,6917.891,95.438,540.661,538.85,0.0
52355.0,STARLINK-3877,PAYLOAD,2024-03-05 19:33:51,15.08836898,0.0001349,53.2161,253.6135,93.9931,266.1216,0.00017137,2.44e-05,0.0,0 STARLINK-3877,1 52355U 22045AA  24065.81517645  .00002440  00000-0  17137-3 0  9999,2 52355  53.2161 253.6135 0001349  93.9931 266.1216 15.08836898104999,6917.89,95.438,540.688,538.822,0.0
52355.0,STARLINK-3877,PAYLOAD,2024-03-06 11:27:42,15.08842526,0.0001279,53.2153,250.6389,83.9082,276.2056,4.9038e-05,4.93e-06,0.0,0 STARLINK-3877,1 52355U 22045AA  24066.47757347  .00000493  00000-0  49038-4 0  9999,2 52355  53.2153 250.6389 0001279  83.9082 276.2056 15.08842526105097,6917.873,95.437,540.622,538.853,0.0
52355.0,STARLINK-3877,PAYLOAD,2024-03-07 04:56:56,15.08855304,0.0001302,53.2157,247.3679,83.9401,276.174,0.00032036,4.816e-05,0.0,0 STARLINK-3877,1 52355U 22045AA  24067.20620724  .00004816  00000-0  32036-3 0  9991,2 52355  53.2157 247.3679 0001302  83.9401 276.1740 15.08855304105208,6917.834,95.437,540.599,538.798,0.0
52355.0,STARLINK-3877,PAYLOAD,2024-03-08 04:47:44,15.08838095,0.000141,53.2148,242.9067,85.1741,274.9413,0.00012006,1.623e-05,0.0,0 STARLINK-3877,1 52355U 22045AA  24068.19981931  .00001623  00000-0  12006-3 0  9998,2 52355  53.2148 242.9067 0001410  85.1741 274.9413 15.08838095105358,6917.886,95.438,540.727,538.776,0.0
52355.0,STARLINK-3877,PAYLOAD,2024-03-08 20:41:36,15.08842071,0.0001527,53.2151,239.932,86.7106,273.4061,0.00059973,9.27e-05,0.0,0 STARLINK-3877,1 52355U 22045AA  24068.86222232  .00009270  00000-0  59973-3 0  9994,2 52355  53.2151 239.9320 0001527  86.7106 273.4061 15.08842071105454,6917.874,95.437,540.795,538.683,0.0
52355.0,STARLINK-3877,PAYLOAD,2024-03-09 11:00:04,15.08851034,0.0002307,53.2144,237.2542,88.7075,271.4181,0.00058033,8.963e-05,0.0,0 STARLINK-3877,1 52355U 22045AA  24069.45838161  .00008963  00000-0  58033-3 0  9998,2 52355  53.2144 237.2542 0002307  88.7075 271.4181 15.08851034105547,6917.847,95.437,541.308,538.116,0.0
52355.0,STARLINK-3877,PAYLOAD,2024-03-09 17:21:36,15.08844055,0.0001162,53.2136,236.065,94.9272,265.1853,0.00030439,4.56e-05,0.0,0 STARLINK-3877,1 52355U 22045AA  24069.72334054  .00004560  00000-0  30439-3 0  9999,2 52355  53.2136 236.0650 0001162  94.9272 265.1853 15.08844055105586,6917.868,95.437,540.537,538.929,0.0
52355.0,STARLINK-3877,PAYLOAD,2024-03-10 10:50:50,15.08850349,0.0001569,53.2113,232.7929,96.4614,263.6557,0.00039504,6.006e-05,0.0,0 STARLINK-3877,1 52355U 22045AA  24070.45197860  .00006006  00000-0  39504-3 0  9992,2 52355  53.2113 232.7929 0001569  96.4614 263.6557 15.08850349105690,6917.849,95.437,540.799,538.628,0.0
52355.0,STARLINK-3877,PAYLOAD,2024-03-10 20:23:09,15.08847116,0.0001532,53.2143,231.0097,88.4512,271.6655,0.00031368,4.709e-05,0.0,0 STARLINK-3877,1 52355U 22045AA  24070.84941893  .00004709  00000-0  31368-3 0  9996,2 52355  53.2143 231.0097 0001532  88.4512 271.6655 15.08847116105752,6917.859,95.437,540.783,538.664,0.0
52355.0,STARLINK-3877,PAYLOAD,2024-03-11 17:03:10,15.08841835,0.0001747,53.213,227.1437,90.9218,269.1974,0.00026043,3.859e-05,0.0,0 STARLINK-3877,1 52355U 22045AA  24071.71054114  .00003859  00000-0  26043-3 0  9993,2 52355  53.2130 227.1437 0001747  90.9218 269.1974 15.08841835105883,6917.875,95.437,540.948,538.531,0.0
52355.0,STARLINK-3877,PAYLOAD,2024-03-12 10:32:25,15.08838687,0.0001693,53.2137,223.8727,89.7733,270.3453,0.00011015,1.465e-05,0.0,0 STARLINK-3877,1 52355U 22045AA  24072.43918298  .00001465  00000-0  11015-3 0  9999,2 52355  53.2137 223.8727 0001693  89.7733 270.3453 15.08838687105992,6917.884,95.438,540.921,538.578,0.0
52355.0,STARLINK-3877,PAYLOAD,2024-03-12 16:53:57,15.08839502,0.0001676,53.2137,222.6833,90.0667,270.0517,0.00010812,1.433e-05,0.0,0 STARLINK-3877,1 52355U 22045AA  24072.70414304  .00001433  00000-0  10812-3 0  9997,2 52355  53.2137 222.6833 0001676  90.0667 270.0517 15.08839502106030,6917.882,95.438,540.906,538.587,0.0
52355.0,STARLINK-3877,PAYLOAD,2024-03-13 02:26:15,15.08859076,5.92e-05,53.2149,220.8987,68.3229,291.7826,0.00037409,5.674e-05,0.0,0 STARLINK-3877,1 52355U 22045AA  24073.10157044  .00005674  00000-0  37409-3 0  9999,2 52355  53.2149 220.8987 0000592  68.3229 291.7826 15.08859076106098,6917.822,95.436,540.097,539.278,0.0
52355.0,STARLINK-3877,PAYLOAD,2024-03-13 10:23:13,15.08823568,0.0001255,53.2104,219.4113,72.1922,287.9207,-7.9398e-05,-1.551e-05,0.0,0 STARLINK-3877,1 52355U 22045AA  24073.43278977 -.00001551  00000-0 -79398-4 0  9990,2 52355  53.2104 219.4113 0001255  72.1922 287.9207 15.08823568106147,6917.931,95.439,540.664,538.927,0.0
52355.0,STARLINK-3877,PAYLOAD,2024-03-13 16:44:45,15.08840609,0.0001192,53.2221,218.2259,80.6296,279.4831,0.0001608,2.272e-05,0.0,0 STARLINK-3877,1 52355U 22045AA  24073.69774412  .00002272  00000-0  16080-3 0  9990,2 52355  53.2221 218.2259 0001192  80.6296 279.4831 15.08840609106181,6917.879,95.438,540.568,538.919,0.0
52355.0,STARLINK-3877,PAYLOAD,2024-03-14 08:38:36,15.08839194,0.0001219,53.2197,215.253,84.4412,275.672,0.00010161,1.33e-05,0.0,0 STARLINK-3877,1 52355U 22045AA  24074.36014561  .00001330  00000-0  10161-3 0  9995,2 52355  53.2197 215.2530 0001219  84.4412 275.6720 15.08839194106287,6917.883,95.438,540.591,538.905,0.0
52355.0,STARLINK-3877,PAYLOAD,2024-03-15 08:29:24,15.08824065,0.0001073,53.2088,210.7873,68.9384,291.1723,0.00057121,8.811e-05,0.0,0 STARLINK-3877,1 52355U 22045AA  24075.35375448  .00008811  00000-0  57121-3 0  9997,2 52355  53.2088 210.7873 0001073  68.9384 291.1723 15.08824065106433,6917.929,95.439,540.536,539.052,0.0
52355.0,STARLINK-3877,PAYLOAD,2024-03-15 18:01:42,15.08841726,0.0001231,53.2158,209.0073,84.5714,275.5419,9.4002e-05,1.209e-05,0.0,0 STARLINK-3877,1 52355U 22045AA  24075.75118480  .00001209  00000-0  94002-4 0  9996,2 52355  53.2158 209.0073 0001231  84.5714 275.5419 15.08841726106498,6917.875,95.437,540.592,538.889,0.0
52355.0,STARLINK-3877,PAYLOAD,2024-03-16 13:06:20,15.08836652,0.0001534,53.2131,205.4372,89.2952,270.8216,3.9089e-05,3.34e-06,0.0,0 STARLINK-3877,1 52355U 22045AA  24076.54606939  .00000334  00000-0  39089-4 0  9997,2 52355  53.2131 205.4372 0001534  89.2952 270.8216 15.08836652106612,6917.891,95.438,540.817,538.694,0.0
52355.0,STARLINK-3877,PAYLOAD,2024-03-16 14:41:43,15.08834756,0.0001559,53.2162,205.1432,75.7094,284.4071,3.2469e-05,2.29e-06,0.0,0 STARLINK-3877,1 52355U 22045AA  24076.61231188  .00000229  00000-0  32469-4 0  9993,2 52355  53.2162 205.1432 0001559  75.7094 284.4071 15.08834756106628,6917.896,95.438,540.84,538.683,0.0
52355.0,STARLINK-3877,PAYLOAD,2024-03-16 17:52:29,15.08839652,0.00014,53.2167,204.5464,87.9367,272.1786,8.1882e-05,1.015e-05,0.0,0 STARLINK-3877,1 52355U 22045AA  24076.74479000  .00001015  00000-0  81882-4 0  9991,2 52355  53.2167 204.5464 0001400  87.9367 272.1786 15.08839652106643,6917.881,95.438,540.715,538.778,0.0
52355.0,STARLINK-3877,PAYLOAD,2024-03-17 14:32:30,15.08841035,0.0001418,53.2168,200.6815,86.2496,273.8658,9.1972e-05,1.176e-05,0.0,0 STARLINK-3877,1 52355U 22045AA  24077.60590906  .00001176  00000-0  91972-4 0  9995,2 52355  53.2168 200.6815 0001418  86.2496 273.8658 15.08841035106773,6917.877,95.437,540.723,538.761,0.0
52355.0,STARLINK-3877,PAYLOAD,2024-03-18 11:12:31,15.08842786,0.0001339,53.2169,196.8156,90.7749,269.3397,9.3646e-05,1.203e-05,0.0,0 STARLINK-3877,1 52355U 22045AA  24078.46702787  .00001203  00000-0  93646-4 0  9993,2 52355  53.2169 196.8156 0001339  90.7749 269.3397 15.08842786106900,6917.872,95.437,540.663,538.811,0.0
52355.0,STARLINK-3877,PAYLOAD,2024-03-19 11:03:18,15.08840908,0.0001461,53.2178,192.3538,106.7002,253.415,2.7796e-05,1.54e-06,0.0,0 STARLINK-3877,1 52355U 22045AA  24079.46063019  .00000154  00000-0  27796-4 0  9999,2 52355  53.2178 192.3538 0001461 106.7002 253.4150 15.08840908107053,6917.878,95.437,540.753,538.732,0.0
52355.0,STARLINK-3877,PAYLOAD,2024-03-19 12:38:41,15.08841616,0.0001444,53.2177,192.0567,102.0458,258.0696,3.2034e-05,2.22e-06,0.0,0 STARLINK-3877,1 52355U 22045AA  24079.52686982  .00000222  00000-0  32034-4 0  9993,2 52355  53.2177 192.0567 0001444 102.0458 258.0696 15.08841616107060,6917.875,95.437,540.739,538.742,0.0
52355.0,STARLINK-3877,PAYLOAD,2024-03-20 10:54:06,15.08832963,0.0001571,53.2178,187.8925,111.6961,248.4198,1.3686e-05,-7e-07,0.0,0 STARLINK-3877,1 52355U 22045AA  24080.45423631 -.00000070  00000-0  13686-4 0  9991,2 52355  53.2178 187.8925 0001571 111.6961 248.4198 15.08832963107208,6917.902,95.438,540.854,538.68,0.0
52355.0,STARLINK-3877,PAYLOAD,2024-03-20 12:29:29,15.08831551,0.0001523,53.2172,187.594,113.0978,247.0175,2.2864e-06,-2.52e-06,0.0,0 STARLINK-3877,1 52355U 22045AA  24080.52047772 -.00000252  00000-0  22864-5 0  9998,2 52355  53.2172 187.5940 0001523 113.0978 247.0175 15.08831551107210,6917.906,95.438,540.825,538.718,0.0
